SL-16 R/B               
1 22566U 93016B   26059.94528812  .00000330  00000+0  19387-3 0  9997
2 22566  71.0052 233.5474 0011185 326.4891  33.5523 14.15303221700937
COSMOS 2242             
1 22626U 93024A   26060.07745446  .00002046  00000+0  17747-3 0  9997
2 22626  82.5160 274.9559 0015846 339.6210  20.4378 14.96507706779104
SL-16 R/B               
1 22803U 93059B   26060.28948345  .00000179  00000+0  11242-3 0  9997
2 22803  70.9913  28.8395 0018876 228.2734 131.6776 14.17231476678344
ARIANE 40 R/B           
1 22830U 93061H   26060.17924058  .00000220  00000+0  96544-4 0  9999
2 22830  98.4935 129.2343 0009724 313.1801  46.8570 14.32855640692889
COSMOS 2278             
1 23087U 94023A   26060.32304062  .00000363  00000+0  21446-3 0  9993
2 23087  71.0537 192.5999 0007566  30.3423 329.8136 14.14373765643622
SL-16 R/B               
1 23088U 94023B   26060.30258278 -.00000030  00000+0  92979-5 0  9992
2 23088  70.9987  88.5024 0005509 293.6233  66.4311 14.15013469644905
SL-16 R/B               
1 23343U 94074B   26060.06192727  .00000543  00000+0  79464-4 0  9992
2 23343  97.7121  91.2287 0005241 243.8930 143.1276 14.79396099685970
SL-16 R/B               
1 23405U 94077B   26060.28746129 -.00000230  00000+0 -93111-4 0  9999
2 23405  70.9849  10.1639 0003548 222.9303 137.1544 14.15563078615045
ARIANE 40+ R/B          
1 23561U 95021B   26060.19895301  .00000314  00000+0  11400-3 0  9990
2 23561  98.4515 131.7960 0007274 159.1383 259.9947 14.39765130618029
SL-16 R/B               
1 23705U 95058B   26059.79936447 -.00000168  00000+0 -61508-4 0  9995
2 23705  71.0208 198.9183 0011073 141.5555 218.6359 14.15492891566593
SL-16 R/B               
1 24298U 96051B   26060.31333972  .00000078  00000+0  68770-4 0  9997
2 24298  70.7592 192.9669 0015838 160.2848 199.8888 14.12413139520460
ORBVIEW 2 (SEASTAR)     
1 24883U 97037A   26060.05362243  .00000341  00000+0  13484-3 0  9990
2 24883  98.8552 224.1374 0003213  89.4035 270.7518 14.35486918507231
